0 DELTA 1 DEB
1 07155U 73086DU  13282.23856503  .00000130  00000-0  13129-2 0  3367
2 07155 102.3734 026.5814 0120624 308.3027 084.2690 12.39088449802090
0 DELTA 1 DEB
1 07155U 73086DU  13285.23113654  .00000128  00000-0  12944-2 0  3375
2 07155 102.3740 029.6164 0120845 302.7959 113.3380 12.39089486802469
0 DELTA 1 DEB
1 07155U 73086DU  13287.24965778  .00000166  00000-0  15776-2 0  3389
2 07155 102.3741 031.6635 0121034 299.0843 117.4324 12.39090312802718
0 DELTA 1 DEB
1 07155U 73086DU  13289.26135852  .00000174  00000-0  16309-2 0  3398
2 07155 102.3741 033.7039 0121225 295.3955 091.0971 12.39091107802969
0 DELTA 1 DEB
1 07155U 73086DU  13291.86603105  .00000195  00000-0  17904-2 0  3405
2 07155 102.3738 036.3457 0121387 290.6331 189.8465 12.39092137803287
0 DELTA 1 DEB
1 07155U 73086DU  13294.19510928  .00000202  00000-0  18432-2 0  3411
2 07155 102.3737 038.7082 0121590 286.3841 139.2421 12.39093590803577
